ONEWEB-0415             
1 51624U 22012C   24180.48560445 -.00000554  00000+0 -16235-2 0  9990
2 51624  87.8932 179.1868 0001703  82.1883 277.9438 13.10372818115166
ONEWEB-0416             
1 51625U 22012D   24180.49723662 -.00000374  00000+0 -11073-2 0  9999
2 51625  87.8943 179.1800 0002013  89.1677 270.9681 13.10377076115207
ONEWEB-0422             
1 51626U 22012E   24180.41508646  .00000241  00000+0  58872-3 0  9995
2 51626  87.9170 148.9449 0002667  76.7262 283.4167 13.17648246119154
ONEWEB-0423             
1 51627U 22012F   24180.40863535  .00000080  00000+0  17187-3 0  9991
2 51627  87.9174 148.9474 0002221  86.1519 273.9866 13.17648145119049
ONEWEB-0425             
1 51628U 22012G   24180.58355680  .00000104  00000+0  26133-3 0  9996
2 51628  87.8940 179.1461 0002165  98.6462 261.4911 13.10375890115219
ONEWEB-0428             
1 51629U 22012H   24180.48726507 -.00000573  00000+0 -16781-2 0  9995
2 51629  87.8938 179.1807 0002088  79.7828 280.3534 13.10373041115162
ONEWEB-0431             
1 51630U 22012J   24180.45727068  .00000435  00000+0  12103-2 0  9996
2 51630  87.8929 179.1831 0001980  67.7741 292.3597 13.10369911115211
ONEWEB-0434             
1 51631U 22012K   24180.51051723  .00000245  00000+0  66435-3 0  9999
2 51631  87.8943 179.1878 0002209  86.2843 273.8537 13.10374883115204
